[Satellite]
VERSION=1.1
NAME=AIST-2
NICKNAME=AIST-2
TLE1=1 39133U 13015D   18021.21419479  .00000113  00000-0  20604-4 0  9999
TLE2=2 39133  64.8744 316.4325 0034091 245.6352 114.1208 15.04473887261094
